{"type": "FeatureCollection", "features": [ {"type": "Feature", "properties": {"norad_id": 41785, "name": "ALSAT 1B", "group": "resource", "lat": 27.44181447277907, "lon": 2.591028067135381, "alt_km": 648.5980638931669, "timestamp": "2025-12-21T05:44:51.233266+00:00", "meta": {"OBJECT_NAME": "ALSAT 1B", "OBJECT_ID": "2016-059C", "EPOCH": "2025-12-20T21:27:55.800576", "MEAN_MOTION": 14.7208372, "ECCENTRICITY": 0.00108119, "INCLINATION": 97.7806, "RA_OF_ASC_NODE": 6.3323, "ARG_OF_PERICENTER": 80.5388, "MEAN_ANOMALY": 279.7041, "EPHEMERIS_TYPE": 0, "CLASSIFICATION_TYPE": "U", "NORAD_CAT_ID": 41785, "ELEMENT_SET_NO": 999, "REV_AT_EPOCH": 49434, "BSTAR": 7.1754696e-05, "MEAN_MOTION_DOT": 4.04e-06, "MEAN_MOTION_DDOT": 0}, "tle": {"line1": "1 41785U 16059C   25354.89439584  .00000404  00000+0  71755-4 0  9991", "line2": "2 41785  97.7806   6.3323 0010811  80.5388 279.7041 14.72083720494342"}}, "geometry": {"type": "Point", "coordinates": [2.591028067135381, 27.44181447277907]}}, {"type": "Feature", "properties": {"norad_id": 41787, "name": "PATHFINDER 1", "group": "resource", "lat": -38.66259112156429, "lon": 3.9261604731247326, "alt_km": 677.5558791879421, "timestamp": "2025-12-21T05:44:51.233276+00:00", "meta": {"OBJECT_NAME": "PATHFINDER 1", "OBJECT_ID": "2016-059E", "EPOCH": "2025-12-20T21:44:31.538976", "MEAN_MOTION": 14.67334172, "ECCENTRICITY": 0.0029819, "INCLINATION": 97.8136, "RA_OF_ASC_NODE": 357.3006, "ARG_OF_PERICENTER": 56.3339, "MEAN_ANOMALY": 304.0704, "EPHEMERIS_TYPE": 0, "CLASSIFICATION_TYPE": "U", "NORAD_CAT_ID": 41787, "ELEMENT_SET_NO": 999, "REV_AT_EPOCH": 49356, "BSTAR": 0.00010532292, "MEAN_MOTION_DOT": 5.52e-06, "MEAN_MOTION_DDOT": 0}, "tle": {"line1": "1 41787U 16059E   25354.90592059  .00000552  00000+0  10532-3 0  9991", "line2": "2 41787  97.8136 357.3006 0029819  56.3339 304.0704 14.67334172493568"}}, "geometry": {"type": "Point", "coordinates": [3.9261604731247326, -38.66259112156429]}}, {"type": "Feature", "properties": {"norad_id": 41790, "name": "SCATSAT 1", "group": "resource", "lat": -50.36873705946081, "lon": 61.97390846575116, "alt_km": 674.4892728556206, "timestamp": "2025-12-21T05:44:51.233290+00:00", "meta": {"OBJECT_NAME": "SCATSAT 1", "OBJECT_ID": "2016-059H", "EPOCH": "2025-12-20T21:51:39.270816", "MEAN_MOTION": 14.78960606, "ECCENTRICITY": 0.00564623, "INCLINATION": 98.1452, "RA_OF_ASC_NODE": 51.6828, "ARG_OF_PERICENTER": 102.2404, "MEAN_ANOMALY": 258.5138, "EPHEMERIS_TYPE": 0, "CLASSIFICATION_TYPE": "U", "NORAD_CAT_ID": 41790, "ELEMENT_SET_NO": 999, "REV_AT_EPOCH": 7523, "BSTAR": 0.00013992684, "MEAN_MOTION_DOT": 1.004e-05, "MEAN_MOTION_DDOT": 0}, "tle": {"line1": "1 41790U 16059H   25354.91087119  .00001004  00000+0  13993-3 0  9999", "line2": "2 41790  98.1452  51.6828 0056462 102.2404 258.5138 14.78960606 75234"}}, "geometry": {"type": "Point", "coordinates": [61.97390846575116, -50.36873705946081]}}, {"type": "Feature", "properties": {"norad_id": 41875, "name": "GOKTURK 1A", "group": "resource", "lat": -77.07774634564196, "lon": 28.875867995170456, "alt_km": 692.4127846790043, "timestamp": "2025-12-21T05:44:51.233300+00:00", "meta": {"OBJECT_NAME": "GOKTURK 1A", "OBJECT_ID": "2016-073A", "EPOCH": "2025-12-20T23:38:16.357920", "MEAN_MOTION": 14.62788671, "ECCENTRICITY": 0.00012768, "INCLINATION": 98.1435, "RA_OF_ASC_NODE": 247.2401, "ARG_OF_PERICENTER": 81.7696, "MEAN_ANOMALY": 278.365, "EPHEMERIS_TYPE": 0, "CLASSIFICATION_TYPE": "U", "NORAD_CAT_ID": 41875, "ELEMENT_SET_NO": 999, "REV_AT_EPOCH": 48277, "BSTAR": 0.00010545621, "MEAN_MOTION_DOT": 4.91e-06, "MEAN_MOTION_DDOT": 0}, "tle": {"line1": "1 41875U 16073A   25354.98491155  .00000491  00000+0  10546-3 0  9995", "line2": "2 41875  98.1435 247.2401 0001276  81.7696 278.3650 14.62788671482779"}}, "geometry": {"type": "Point", "coordinates": [28.875867995170456, -77.07774634564196]}}, {"type": "Feature", "properties": {"norad_id": 41877, "name": "RESOURCESAT-2A", "group": "resource", "lat": 48.38616227047951, "lon": -104.93967288128759, "alt_km": 815.4572801491777, "timestamp": "2025-12-21T05:44:51.233310+00:00", "meta": {"OBJECT_NAME": "RESOURCESAT-2A", "OBJECT_ID": "2016-074A", "EPOCH": "2025-12-20T22:22:39.497376", "MEAN_MOTION": 14.21601695, "ECCENTRICITY": 0.00014095, "INCLINATION": 98.7753, "RA_OF_ASC_NODE": 64.7408, "ARG_OF_PERICENTER": 216.0947, "MEAN_ANOMALY": 144.0135, "EPHEMERIS_TYPE": 0, "CLASSIFICATION_TYPE": "U", "NORAD_CAT_ID": 41877, "ELEMENT_SET_NO": 999, "REV_AT_EPOCH": 46897, "BSTAR": -8.943122e-05, "MEAN_MOTION_DOT": -2.4e-06, "MEAN_MOTION_DDOT": 0}, "tle": {"line1": "1 41877U 16074A   25354.93240159 -.00000240  00000+0 -89431-4 0  9993", "line2": "2 41877  98.7753  64.7408 0001409 216.0947 144.0135 14.21601695468977"}}, "geometry": {"type": "Point", "coordinates": [-104.93967288128759, 48.38616227047951]}}, {"type": "Feature", "properties": {"norad_id": 41948, "name": "CARTOSAT-2D", "group": "resource", "lat": -60.737369295044694, "lon": -140.87556706456496, "alt_km": 516.0106095435985, "timestamp": "2025-12-21T05:44:51.233321+00:00", "meta": {"OBJECT_NAME": "CARTOSAT-2D", "OBJECT_ID": "2017-008A", "EPOCH": "2025-12-20T22:21:55.226880", "MEAN_MOTION": 15.19328872, "ECCENTRICITY": 0.00052984, "INCLINATION": 97.4382, "RA_OF_ASC_NODE": 52.305, "ARG_OF_PERICENTER": 137.3857, "MEAN_ANOMALY": 222.779, "EPHEMERIS_TYPE": 0, "CLASSIFICATION_TYPE": "U", "NORAD_CAT_ID": 41948, "ELEMENT_SET_NO": 999, "REV_AT_EPOCH": 49051, "BSTAR": 6.9360543e-05, "MEAN_MOTION_DOT": 1.397e-05, "MEAN_MOTION_DDOT": 0}, "tle": {"line1": "1 41948U 17008A   25354.93188920  .00001397  00000+0  69361-4 0  9999", "line2": "2 41948  97.4382  52.3050 0005298 137.3857 222.7790 15.19328872490518"}}, "geometry": {"type": "Point", "coordinates": [-140.87556706456496, -60.737369295044694]}}, {"type": "Feature", "properties": {"norad_id": 42063, "name": "SENTINEL-2B", "group": "resource", "lat": 20.446214764312664, "lon": 64.34303654322409, "alt_km": 788.6952765053493, "timestamp": "2025-12-21T05:44:51.233331+00:00", "meta": {"OBJECT_NAME": "SENTINEL-2B", "OBJECT_ID": "2017-013A", "EPOCH": "2025-12-20T22:56:16.323936", "MEAN_MOTION": 14.30813435, "ECCENTRICITY": 0.00011964, "INCLINATION": 98.5714, "RA_OF_ASC_NODE": 67.2867, "ARG_OF_PERICENTER": 93.7209, "MEAN_ANOMALY": 266.4111, "EPHEMERIS_TYPE": 0, "CLASSIFICATION_TYPE": "U", "NORAD_CAT_ID": 42063, "ELEMENT_SET_NO": 999, "REV_AT_EPOCH": 45915, "BSTAR": 3.4801366e-05, "MEAN_MOTION_DOT": 4.8e-07, "MEAN_MOTION_DDOT": 0}, "tle": {"line1": "1 42063U 17013A   25354.95574449  .00000048  00000+0  34801-4 0  9994", "line2": "2 42063  98.5714  67.2867 0001196  93.7209 266.4111 14.30813435459151"}}, "geometry": {"type": "Point", "coordinates": [64.34303654322409, 20.446214764312664]}}, {"type": "Feature", "properties": {"norad_id": 42767, "name": "CARTOSAT-2E", "group": "resource", "lat": 29.1564166285786, "lon": -123.09531043861222, "alt_km": 505.4821966104746, "timestamp": "2025-12-21T05:44:51.233341+00:00", "meta": {"OBJECT_NAME": "CARTOSAT-2E", "OBJECT_ID": "2017-036C", "EPOCH": "2025-12-20T22:45:52.003584", "MEAN_MOTION": 15.19271026, "ECCENTRICITY": 0.00025366, "INCLINATION": 97.4552, "RA_OF_ASC_NODE": 52.4281, "ARG_OF_PERICENTER": 196.1944, "MEAN_ANOMALY": 163.921, "EPHEMERIS_TYPE": 0, "CLASSIFICATION_TYPE": "U", "NORAD_CAT_ID": 42767, "ELEMENT_SET_NO": 999, "REV_AT_EPOCH": 47108, "BSTAR": 0.00011280395, "MEAN_MOTION_DOT": 2.31e-05, "MEAN_MOTION_DDOT": 0}, "tle": {"line1": "1 42767U 17036C   25354.94851856  .00002310  00000+0  11280-3 0  9998", "line2": "2 42767  97.4552  52.4281 0002536 196.1944 163.9210 15.19271026471088"}}, "geometry": {"type": "Point", "coordinates": [-123.09531043861222, 29.1564166285786]}}, {"type": "Feature", "properties": {"norad_id": 42920, "name": "FORMOSAT-5", "group": "resource", "lat": -80.15424351002959, "lon": 126.04576795200028, "alt_km": 723.5198783456999, "timestamp": "2025-12-21T05:44:51.233351+00:00", "meta": {"OBJECT_NAME": "FORMOSAT-5", "OBJECT_ID": "2017-049A", "EPOCH": "2025-12-20T21:51:36.810144", "MEAN_MOTION": 14.50764868, "ECCENTRICITY": 0.00098261, "INCLINATION": 98.2443, "RA_OF_ASC_NODE": 69.0659, "ARG_OF_PERICENTER": 273.716, "MEAN_ANOMALY": 86.2911, "EPHEMERIS_TYPE": 0, "CLASSIFICATION_TYPE": "U", "NORAD_CAT_ID": 42920, "ELEMENT_SET_NO": 999, "REV_AT_EPOCH": 44082, "BSTAR": 4.6495808e-05, "MEAN_MOTION_DOT": 1.39e-06, "MEAN_MOTION_DDOT": 0}, "tle": {"line1": "1 42920U 17049A   25354.91084271  .00000139  00000+0  46496-4 0  9994", "line2": "2 42920  98.2443  69.0659 0009826 273.7160  86.2911 14.50764868440829"}}, "geometry": {"type": "Point", "coordinates": [126.04576795200028, -80.15424351002959]}}, {"type": "Feature", "properties": {"norad_id": 42969, "name": "SENTINEL-5P", "group": "resource", "lat": 71.16987274146756, "lon": -93.199524649126, "alt_km": 819.3763443164471, "timestamp": "2025-12-21T05:44:51.233362+00:00", "meta": {"OBJECT_NAME": "SENTINEL-5P", "OBJECT_ID": "2017-064A", "EPOCH": "2025-12-20T19:15:13.276800", "MEAN_MOTION": 14.19519279, "ECCENTRICITY": 0.00010111, "INCLINATION": 98.7796, "RA_OF_ASC_NODE": 293.3152, "ARG_OF_PERICENTER": 90.8145, "MEAN_ANOMALY": 269.3147, "EPHEMERIS_TYPE": 0, "CLASSIFICATION_TYPE": "U", "NORAD_CAT_ID": 42969, "ELEMENT_SET_NO": 999, "REV_AT_EPOCH": 42425, "BSTAR": 3.9815891e-05, "MEAN_MOTION_DOT": 4e-07, "MEAN_MOTION_DDOT": 0}, "tle": {"line1": "1 42969U 17064A   25354.80223700  .00000040  00000+0  39816-4 0  9993", "line2": "2 42969  98.7796 293.3152 0001011  90.8145 269.3147 14.19519279424250"}}, "geometry": {"type": "Point", "coordinates": [-93.199524649126, 71.16987274146756]}}]}